NORAD_CAT_ID,OBJECT_NAME,OBJECT_TYPE,EPOCH,MEAN_MOTION,ECCENTRICITY,INCLINATION,RA_OF_ASC_NODE,ARG_OF_PERICENTER,MEAN_ANOMALY,BSTAR,MEAN_MOTION_DOT,MEAN_MOTION_DDOT,TLE_LINE0,TLE_LINE1,TLE_LINE2,SEMIMAJOR_AXIS,PERIOD,APOGEE,PERIGEE,DECAYED
53742.0,STARLINK-4637,PAYLOAD,2022-11-19 14:00:01,15.08856522,0.0001341,53.2149,278.4594,73.5534,274.6334,-0.0032335,-0.00051405,0.0,0 STARLINK-4637,1 53742U 22107AU  22323.58334491 -.00051405  00000-0 -32335-2 0  9997,2 53742  53.2149 278.4594 0001341  73.5534 274.6334 15.08856522  1307,6917.83,95.437,540.623,538.7669999999998,0.0
53742.0,STARLINK-4637,PAYLOAD,2022-11-19 22:00:00,15.08836231,0.000131,53.2165,276.9662,78.0201,281.7526,-0.0018879,-0.00030205,0.0,0 STARLINK-4637,1 53742U 22107AU  22323.91667824 -.00030205  00000-0 -18879-2 0  9995,2 53742  53.2165 276.9662 0001310  78.0201 281.7526 15.08836231  1308,6917.892,95.438,540.663,538.851,0.0
53742.0,STARLINK-4637,PAYLOAD,2022-11-20 06:00:00,15.08828253,0.0001501,53.2149,275.4678,71.3999,299.9746,0.0018228,0.00028832,0.0,0 STARLINK-4637,1 53742U 22107AU  22324.25001157  .00028832  00000-0  18228-2 0  9993,2 53742  53.2149 275.4678 0001501  71.3999 299.9746 15.08828253 11832,6917.916,95.438,540.82,538.743,0.0
53742.0,STARLINK-4637,PAYLOAD,2022-11-20 14:00:01,15.08852205,0.0001496999999999,53.2146,273.9698,76.5944,306.3765,-0.0026985,-0.00042993,0.0,0 STARLINK-4637,1 53742U 22107AU  22324.58334491 -.00042993  00000-0 -26985-2 0  9994,2 53742  53.2146 273.9698 0001497  76.5944 306.3765 15.08852205  1304,6917.843000000003,95.437,540.744,538.672,0.0
53742.0,STARLINK-4637,PAYLOAD,2022-11-20 22:00:00,15.08841226,0.0001565999999999,53.2148,272.4732,81.6717,312.8858,0.00030806,4.618e-05,0.0,0 STARLINK-4637,1 53742U 22107AU  22324.91667824  .00004618  00000-0  30806-3 0  9998,2 53742  53.2148 272.4732 0001566  81.6717 312.8858 15.08841226  1307,6917.877,95.437,540.825,538.658,0.0
53742.0,STARLINK-4637,PAYLOAD,2022-11-21 08:00:01,15.08832969,0.0001539,53.2145,270.6041,70.4573,68.5995,2.1068e-05,4.7e-07,0.0,0 STARLINK-4637,1 53742U 22107AU  22325.33334491  .00000047  00000-0  21068-4 0  9999,2 53742  53.2145 270.6041 0001539  70.4573  68.5995 15.08832969 11990,6917.901999999999,95.438,540.832,538.702,0.0
53742.0,STARLINK-4637,PAYLOAD,2022-11-21 14:00:01,15.08825781,0.0001440999999999,53.2147,269.4802,76.2767,341.4779,-2.9816e-05,-7.62e-06,0.0,0 STARLINK-4637,1 53742U 22107AU  22325.58334491 -.00000762  00000-0 -29816-4 0  9991,2 53742  53.2147 269.4802 0001441  76.2767 341.4779 15.08825781  1305,6917.924,95.438,540.786,538.7919999999998,0.0
53742.0,STARLINK-4637,PAYLOAD,2022-11-21 22:00:00,15.08845131,0.00015,53.2149,267.9837,79.4041,349.9233,3.8437e-05,3.24e-06,0.0,0 STARLINK-4637,1 53742U 22107AU  22325.91667824  .00000324  00000-0  38437-4 0  9998,2 53742  53.2149 267.9837 0001500  79.4041 349.9233 15.08845131  1303,6917.865,95.437,540.7669999999998,538.692,0.0
53742.0,STARLINK-4637,PAYLOAD,2022-11-22 14:00:01,15.08827603,0.0001372,53.2152,264.9907,74.721,17.8745,0.0001091,1.448e-05,0.0,0 STARLINK-4637,1 53742U 22107AU  22326.58335648  .00001448  00000-0  10910-3 0  9991,2 53742  53.2152 264.9907 0001372  74.7210  17.8745 15.08827603 12186,6917.918000000002,95.438,540.732,538.8340000000002,0.0
53742.0,STARLINK-4637,PAYLOAD,2022-11-22 22:00:00,15.08855471,0.0001395999999999,53.2154,263.4943,76.0753,28.0315,-0.0032551,-0.00051743,0.0,0 STARLINK-4637,1 53742U 22107AU  22326.91667824 -.00051743  00000-0 -32551-2 0  9991,2 53742  53.2154 263.4943 0001396  76.0753  28.0315 15.08855471  1308,6917.833000000001,95.437,540.664,538.732,0.0
53742.0,STARLINK-4637,PAYLOAD,2022-11-23 14:00:01,15.08823212,0.0001324,53.2158,260.5015,72.1362,55.137,0.00082321,0.00012832,0.0,0 STARLINK-4637,1 53742U 22107AU  22327.58334491  .00012832  00000-0  82321-3 0  9991,2 53742  53.2158 260.5015 0001324  72.1362  55.1370 15.08823212  1304,6917.932,95.439,540.7130000000002,538.881,0.0
53742.0,STARLINK-4637,PAYLOAD,2022-11-23 16:00:00,15.08808894,0.0001323,53.2157,260.1271,73.5529,146.6203,0.0030501,0.00048547,0.0,0 STARLINK-4637,1 53742U 22107AU  22327.66667824  .00048547  00000-0  30501-2 0  9993,2 53742  53.2157 260.1271 0001323  73.5529 146.6203 15.08808894 12348,6917.975,95.44,540.756,538.925,0.0
53742.0,STARLINK-4637,PAYLOAD,2022-11-23 22:00:00,15.08850427,0.0001409999999999,53.216,259.0053,74.0522,64.7949,-0.00082601,-0.00013414,0.0,0 STARLINK-4637,1 53742U 22107AU  22327.91667824 -.00013414  00000-0 -82601-3 0  9997,2 53742  53.2160 259.0053 0001410  74.0522  64.7949 15.08850427  1303,6917.849,95.437,540.689,538.738,0.0
53742.0,STARLINK-4637,PAYLOAD,2022-11-24 08:00:01,15.08853391,0.0001414,53.2157,257.1361,64.2092,179.1374,-0.0014615,-0.00023481,0.0,0 STARLINK-4637,1 53742U 22107AU  22328.33334491 -.00023481  00000-0 -14615-2 0  9999,2 53742  53.2157 257.1361 0001414  64.2092 179.1374 15.08853391 12440,6917.839,95.437,540.683,538.726,0.0
53742.0,STARLINK-4637,PAYLOAD,2022-11-24 14:00:01,15.08824446,0.0001271,53.2161,256.0124,70.6078,91.4485,0.00062294,9.636e-05,0.0,0 STARLINK-4637,1 53742U 22107AU  22328.58334491  .00009636  00000-0  62294-3 0  9997,2 53742  53.2161 256.0124 0001271  70.6078  91.4485 15.08824446  1307,6917.928000000001,95.439,540.672,538.914,0.0
53742.0,STARLINK-4637,PAYLOAD,2022-11-24 22:00:00,15.08849771,0.0001351999999999,53.2162,254.5165,72.0695,101.5621,-0.0010192,-0.00016476,0.0,0 STARLINK-4637,1 53742U 22107AU  22328.91667824 -.00016476  00000-0 -10192-2 0  9994,2 53742  53.2162 254.5165 0001352  72.0695 101.5621 15.08849771  1300,6917.851,95.437,540.651,538.78,0.0
53742.0,STARLINK-4637,PAYLOAD,2022-11-25 08:00:01,15.0885957,0.0001437,53.2157,252.6471,64.3752,213.7518,-0.0022648,-0.00036171,0.0,0 STARLINK-4637,1 53742U 22107AU  22329.33334491 -.00036171  00000-0 -22648-2 0  9995,2 53742  53.2157 252.6471 0001437  64.3752 213.7518 15.08859570 12597,6917.821,95.436,540.68,538.691,0.0
53742.0,STARLINK-4637,PAYLOAD,2022-11-25 14:00:01,15.08821359,0.0001395,53.2159,251.5234,72.7947,124.0491,0.0012604,0.00019818,0.0,0 STARLINK-4637,1 53742U 22107AU  22329.58334491  .00019818  00000-0  12604-2 0  9990,2 53742  53.2159 251.5234 0001395  72.7947 124.0491 15.08821359  1301,6917.937,95.439,540.7669999999998,538.837,0.0
53742.0,STARLINK-4637,PAYLOAD,2022-11-25 22:00:00,15.08854427,0.000149,53.216,250.0278,74.1463,134.2755,-0.0007042999999999,-0.00011484,0.0,0 STARLINK-4637,1 53742U 22107AU  22329.91667824 -.00011484  00000-0 -70430-3 0  9991,2 53742  53.2160 250.0278 0001490  74.1463 134.2755 15.08854427 12681,6917.8359999999975,95.437,540.732,538.6709999999998,0.0
53742.0,STARLINK-4637,PAYLOAD,2022-11-26 14:00:01,15.08845319,0.0001388,53.2153,247.0345,74.6459,157.0059,-0.00027188,-4.613e-05,0.0,0 STARLINK-4637,1 53742U 22107AU  22330.58334491 -.00004613  00000-0 -27188-3 0  9995,2 53742  53.2153 247.0345 0001388  74.6459 157.0059 15.08845319  1307,6917.864000000001,95.437,540.689,538.769,0.0
53742.0,STARLINK-4637,PAYLOAD,2022-11-26 22:00:00,15.08848604,0.0001479,53.2152,245.539,74.6778,168.5712,-0.0024001,-0.00038292,0.0,0 STARLINK-4637,1 53742U 22107AU  22330.91667824 -.00038292  00000-0 -24001-2 0  9991,2 53742  53.2152 245.5390 0001479  74.6778 168.5712 15.08848604  1307,6917.854,95.437,540.742,538.696,0.0
53742.0,STARLINK-4637,PAYLOAD,2022-11-27 06:00:00,15.08819759,0.0001535,53.2146,244.0436,67.8419,186.999,0.0018174,0.00028738,0.0,0 STARLINK-4637,1 53742U 22107AU  22331.25001157  .00028738  00000-0  18174-2 0  9996,2 53742  53.2146 244.0436 0001535  67.8419 186.9990 15.08819759 12880,6917.941999999999,95.439,540.869,538.745,0.0
53742.0,STARLINK-4637,PAYLOAD,2022-11-27 14:00:01,15.08805594,0.000143,53.2155,242.5454,76.5118,189.9201,0.0027525,0.00043749,0.0,0 STARLINK-4637,1 53742U 22107AU  22331.58334491  .00043749  00000-0  27525-2 0  9991,2 53742  53.2155 242.5454 0001430  76.5118 189.9201 15.08805594  1305,6917.986,95.44,540.84,538.861,0.0
53742.0,STARLINK-4637,PAYLOAD,2022-11-27 22:00:00,15.08846365,0.0001489,53.2162,241.0501,75.1916,202.8075,-0.0011429,-0.00018434,0.0,0 STARLINK-4637,1 53742U 22107AU  22331.91667824 -.00018434  00000-0 -11429-2 0  9998,2 53742  53.2162 241.0501 0001489  75.1916 202.8075 15.08846365  1300,6917.861,95.437,540.756,538.696,0.0
53742.0,STARLINK-4637,PAYLOAD,2022-11-28 00:00:00,15.0884647,0.0001516,53.2161,240.6764,71.9492,298.949,-0.0016021,-0.00025699,0.0,0 STARLINK-4637,1 53742U 22107AU  22332.00001157 -.00025699  00000-0 -16021-2 0  9994,2 53742  53.2161 240.6764 0001516  71.9492 298.9490 15.08846470 13003,6917.861,95.437,540.774,538.677,0.0
53742.0,STARLINK-4637,PAYLOAD,2022-11-28 22:00:01,15.08848614,0.0001449,53.2156,236.5609,73.3389,239.4878,-0.0010966,-0.00017702,0.0,0 STARLINK-4637,1 53742U 22107AU  22332.91668981 -.00017702  00000-0 -10966-2 0  9996,2 53742  53.2156 236.5609 0001449  73.3389 239.4878 15.08848614  1307,6917.854,95.437,540.721,538.717,0.0
53742.0,STARLINK-4637,PAYLOAD,2022-11-29 14:00:01,15.08816035,0.0001361,53.2155,233.567,75.0147,261.0223,0.0011825,0.00018569,0.0,0 STARLINK-4637,1 53742U 22107AU  22333.58335648  .00018569  00000-0  11825-2 0  9996,2 53742  53.2155 233.5670 0001361  75.0147 261.0223 15.08816035  1302,6917.954000000002,95.439,540.76,538.877,0.0
53742.0,STARLINK-4637,PAYLOAD,2022-11-29 22:00:00,15.08828553,0.0001551999999999,53.2156,232.0717,71.9902,275.5567,-0.0016349,-0.00026205,0.0,0 STARLINK-4637,1 53742U 22107AU  22333.91667824 -.00026205  00000-0 -16349-2 0  9991,2 53742  53.2156 232.0717 0001552  71.9902 275.5567 15.08828553 13295,6917.915,95.438,540.854,538.707,0.0
53742.0,STARLINK-4637,PAYLOAD,2022-11-30 14:00:01,15.08803912,0.0001491,53.2159,229.0785,76.0778,294.6837,0.0036797,0.00058704,0.0,0 STARLINK-4637,1 53742U 22107AU  22334.58335648  .00058704  00000-0  36797-2 0  9997,2 53742  53.2159 229.0785 0001491  76.0778 294.6837 15.08803912 13393,6917.991,95.44,540.887,538.8240000000002,0.0
